{
  "type": "FeatureCollection",
  "features": [
    {
      "type": "Feature",
      "properties": {
        "norad_id": 35023,
        "name": "COSMOS 2251 DEB",
        "group": "cosmos-2251-debris",
        "lat": -51.12848385993651,
        "lon": 46.48358132867245,
        "alt_km": 572.7971900113807,
        "timestamp": "2025-12-16T03:53:27.451115+00:00",
        "meta_object_name": "COSMOS 2251 DEB",
        "meta_object_id": "1993-036AGL",
        "meta_epoch": "2025-12-15T08:21:49.312224",
        "meta_mean_motion": 14.95192492,
        "meta_eccentricity": 0.00338386,
        "meta_inclination": 74.0376,
        "meta_ra_of_asc_node": 207.325,
        "meta_arg_of_pericenter": 284.7732,
        "meta_mean_anomaly": 251.8053,
        "meta_ephemeris_type": 0,
        "meta_classification_type": "U",
        "meta_norad_cat_id": 35023,
        "meta_element_set_no": 999,
        "meta_rev_at_epoch": 88318,
        "meta_bstar": 0.0008768266,
        "meta_mean_motion_dot": 9.72e-05,
        "meta_mean_motion_ddot": 0,
        "tle_line1": "1 35023U 93036AGL 25349.34848741  .00009720  00000+0  87683-3 0  9998",
        "tle_line2": "2 35023  74.0376 207.3250 0033838 284.7732 251.8053 14.95192492883187"
      },
      "geometry": {
        "type": "Point",
        "coordinates": [
          46.48358132867245,
          -51.12848385993651
        ]
      }
    },
    {
      "type": "Feature",
      "properties": {
        "norad_id": 35025,
        "name": "COSMOS 2251 DEB",
        "group": "cosmos-2251-debris",
        "lat": 32.12961618539915,
        "lon": 66.64769093662778,
        "alt_km": 624.7962697689982,
        "timestamp": "2025-12-16T03:53:27.451126+00:00",
        "meta_object_name": "COSMOS 2251 DEB",
        "meta_object_id": "1993-036AGN",
        "meta_epoch": "2025-12-14T10:58:59.518848",
        "meta_mean_motion": 14.72720233,
        "meta_eccentricity": 0.00852576,
        "meta_inclination": 73.939,
        "meta_ra_of_asc_node": 59.5616,
        "meta_arg_of_pericenter": 332.0086,
        "meta_mean_anomaly": 27.6512,
        "meta_ephemeris_type": 0,
        "meta_classification_type": "U",
        "meta_norad_cat_id": 35025,
        "meta_element_set_no": 999,
        "meta_rev_at_epoch": 88668,
        "meta_bstar": 0.00044102705,
        "meta_mean_motion_dot": 2.945e-05,
        "meta_mean_motion_ddot": 0,
        "tle_line1": "1 35025U 93036AGN 25348.45763332  .00002945  00000+0  44103-3 0  9995",
        "tle_line2": "2 35025  73.9390  59.5616 0085257 332.0086  27.6512 14.72720233886689"
      },
      "geometry": {
        "type": "Point",
        "coordinates": [
          66.64769093662778,
          32.12961618539915
        ]
      }
    },
    {
      "type": "Feature",
      "properties": {
        "norad_id": 35026,
        "name": "COSMOS 2251 DEB",
        "group": "cosmos-2251-debris",
        "lat": 26.076215702661802,
        "lon": -39.60960513646744,
        "alt_km": 666.1465932904794,
        "timestamp": "2025-12-16T03:53:27.451136+00:00",
        "meta_object_name": "COSMOS 2251 DEB",
        "meta_object_id": "1993-036AGP",
        "meta_epoch": "2025-12-13T06:41:51.254880",
        "meta_mean_motion": 14.53623986,
        "meta_eccentricity": 0.00823222,
        "meta_inclination": 74.0467,
        "meta_ra_of_asc_node": 317.7836,
        "meta_arg_of_pericenter": 71.0972,
        "meta_mean_anomaly": 355.7631,
        "meta_ephemeris_type": 0,
        "meta_classification_type": "U",
        "meta_norad_cat_id": 35026,
        "meta_element_set_no": 999,
        "meta_rev_at_epoch": 88151,
        "meta_bstar": 0.0001179875,
        "meta_mean_motion_dot": 4.86e-06,
        "meta_mean_motion_ddot": 0,
        "tle_line1": "1 35026U 93036AGP 25347.27906545  .00000486  00000+0  11799-3 0  9993",
        "tle_line2": "2 35026  74.0467 317.7836 0082322  71.0972 355.7631 14.53623986881514"
      },
      "geometry": {
        "type": "Point",
        "coordinates": [
          -39.60960513646744,
          26.076215702661802
        ]
      }
    },
    {
      "type": "Feature",
      "properties": {
        "norad_id": 35028,
        "name": "COSMOS 2251 DEB",
        "group": "cosmos-2251-debris",
        "lat": 2.4417370680562036,
        "lon": 83.78847076295197,
        "alt_km": 751.1419680883046,
        "timestamp": "2025-12-16T03:53:27.451146+00:00",
        "meta_object_name": "COSMOS 2251 DEB",
        "meta_object_id": "1993-036AGR",
        "meta_epoch": "2025-12-13T04:31:14.272896",
        "meta_mean_motion": 14.56570709,
        "meta_eccentricity": 0.00824622,
        "meta_inclination": 74.0384,
        "meta_ra_of_asc_node": 270.1287,
        "meta_arg_of_pericenter": 43.6868,
        "meta_mean_anomaly": 26.0271,
        "meta_ephemeris_type": 0,
        "meta_classification_type": "U",
        "meta_norad_cat_id": 35028,
        "meta_element_set_no": 999,
        "meta_rev_at_epoch": 88292,
        "meta_bstar": 0.0001683276,
        "meta_mean_motion_dot": 7.54e-06,
        "meta_mean_motion_ddot": 0,
        "tle_line1": "1 35028U 93036AGR 25347.18835964  .00000754  00000+0  16833-3 0  9993",
        "tle_line2": "2 35028  74.0384 270.1287 0082462  43.6868  26.0271 14.56570709882921"
      },
      "geometry": {
        "type": "Point",
        "coordinates": [
          83.78847076295197,
          2.4417370680562036
        ]
      }
    },
    {
      "type": "Feature",
      "properties": {
        "norad_id": 35031,
        "name": "COSMOS 2251 DEB",
        "group": "cosmos-2251-debris",
        "lat": -40.9602052566444,
        "lon": 87.34407325282814,
        "alt_km": 777.6353176286593,
        "timestamp": "2025-12-16T03:53:27.451157+00:00",
        "meta_object_name": "COSMOS 2251 DEB",
        "meta_object_id": "1993-036AGU",
        "meta_epoch": "2025-12-15T00:08:52.258560",
        "meta_mean_motion": 14.38296193,
        "meta_eccentricity": 0.00189551,
        "meta_inclination": 74.0382,
        "meta_ra_of_asc_node": 255.0872,
        "meta_arg_of_pericenter": 348.073,
        "meta_mean_anomaly": 11.9972,
        "meta_ephemeris_type": 0,
        "meta_classification_type": "U",
        "meta_norad_cat_id": 35031,
        "meta_element_set_no": 999,
        "meta_rev_at_epoch": 65316,
        "meta_bstar": 0.00018036686,
        "meta_mean_motion_dot": 5.24e-06,
        "meta_mean_motion_ddot": 0,
        "tle_line1": "1 35031U 93036AGU 25349.00616040  .00000524  00000+0  18037-3 0  9995",
        "tle_line2": "2 35031  74.0382 255.0872 0018955 348.0730  11.9972 14.38296193653166"
      },
      "geometry": {
        "type": "Point",
        "coordinates": [
          87.34407325282814,
          -40.9602052566444
        ]
      }
    },
    {
      "type": "Feature",
      "properties": {
        "norad_id": 35032,
        "name": "COSMOS 2251 DEB",
        "group": "cosmos-2251-debris",
        "lat": -18.46493636709256,
        "lon": -4.864432055537031,
        "alt_km": 732.3677753759239,
        "timestamp": "2025-12-16T03:53:27.451167+00:00",
        "meta_object_name": "COSMOS 2251 DEB",
        "meta_object_id": "1993-036AGV",
        "meta_epoch": "2025-12-14T19:52:23.160576",
        "meta_mean_motion": 14.58745968,
        "meta_eccentricity": 0.00682524,
        "meta_inclination": 73.8521,
        "meta_ra_of_asc_node": 3.2556,
        "meta_arg_of_pericenter": 214.2465,
        "meta_mean_anomaly": 322.9329,
        "meta_ephemeris_type": 0,
        "meta_classification_type": "U",
        "meta_norad_cat_id": 35032,
        "meta_element_set_no": 999,
        "meta_rev_at_epoch": 87704,
        "meta_bstar": 0.00078629942,
        "meta_mean_motion_dot": 3.761e-05,
        "meta_mean_motion_ddot": 0,
        "tle_line1": "1 35032U 93036AGV 25348.82804584  .00003761  00000+0  78630-3 0  9998",
        "tle_line2": "2 35032  73.8521   3.2556 0068252 214.2465 322.9329 14.58745968877042"
      },
      "geometry": {
        "type": "Point",
        "coordinates": [
          -4.864432055537031,
          -18.46493636709256
        ]
      }
    },
    {
      "type": "Feature",
      "properties": {
        "norad_id": 35033,
        "name": "COSMOS 2251 DEB",
        "group": "cosmos-2251-debris",
        "lat": -73.85366504464926,
        "lon": 71.79491907070575,
        "alt_km": 719.3579684476408,
        "timestamp": "2025-12-16T03:53:27.451177+00:00",
        "meta_object_name": "COSMOS 2251 DEB",
        "meta_object_id": "1993-036AGW",
        "meta_epoch": "2025-12-14T19:13:10.523136",
        "meta_mean_motion": 14.50941129,
        "meta_eccentricity": 0.00144614,
        "meta_inclination": 74.0257,
        "meta_ra_of_asc_node": 172.6985,
        "meta_arg_of_pericenter": 279.0961,
        "meta_mean_anomaly": 80.8563,
        "meta_ephemeris_type": 0,
        "meta_classification_type": "U",
        "meta_norad_cat_id": 35033,
        "meta_element_set_no": 999,
        "meta_rev_at_epoch": 65957,
        "meta_bstar": 0.00063074773,
        "meta_mean_motion_dot": 2.468e-05,
        "meta_mean_motion_ddot": 0,
        "tle_line1": "1 35033U 93036AGW 25348.80081624  .00002468  00000+0  63075-3 0  9999",
        "tle_line2": "2 35033  74.0257 172.6985 0014461 279.0961  80.8563 14.50941129659577"
      },
      "geometry": {
        "type": "Point",
        "coordinates": [
          71.79491907070575,
          -73.85366504464926
        ]
      }
    }
  ]
}